[{"OBJECT_NAME":"COSMOS 2251 DEB","OBJECT_ID":"1993-036ANR","EPOCH":"2026-04-27T07:47:21.155424","MEAN_MOTION":14.88147962,"ECCENTRICITY":0.00132188,"INCLINATION":74.0417,"RA_OF_ASC_NODE":109.3837,"ARG_OF_PERICENTER":150.2728,"MEAN_ANOMALY":274.4322,"EPHEMERIS_TYPE":0,"CLASSIFICATION_TYPE":"U","NORAD_CAT_ID":35650,"ELEMENT_SET_NO":999,"REV_AT_EPOCH":89648,"BSTAR":0.0019223165,"MEAN_MOTION_DOT":0.00017749,"MEAN_MOTION_DDOT":0},{"OBJECT_NAME":"COSMOS 2251 DEB","OBJECT_ID":"1993-036APB","EPOCH":"2026-04-26T14:39:43.188192","MEAN_MOTION":14.50396596,"ECCENTRICITY":0.0017763,"INCLINATION":74.0399,"RA_OF_ASC_NODE":239.9524,"ARG_OF_PERICENTER":352.5648,"MEAN_ANOMALY":25.5129,"EPHEMERIS_TYPE":0,"CLASSIFICATION_TYPE":"U","NORAD_CAT_ID":35660,"ELEMENT_SET_NO":999,"REV_AT_EPOCH":67826,"BSTAR":0.0003303,"MEAN_MOTION_DOT":1.265e-5,"MEAN_MOTION_DDOT":0},{"OBJECT_NAME":"COSMOS 2251 DEB","OBJECT_ID":"1993-036APC","EPOCH":"2026-04-27T02:44:01.759200","MEAN_MOTION":14.88561245,"ECCENTRICITY":0.00869414,"INCLINATION":74.0119,"RA_OF_ASC_NODE":169.425,"ARG_OF_PERICENTER":238.9405,"MEAN_ANOMALY":120.3222,"EPHEMERIS_TYPE":0,"CLASSIFICATION_TYPE":"U","NORAD_CAT_ID":35661,"ELEMENT_SET_NO":999,"REV_AT_EPOCH":89881,"BSTAR":0.00052727948,"MEAN_MOTION_DOT":5.228e-5,"MEAN_MOTION_DDOT":0},{"OBJECT_NAME":"COSMOS 2251 DEB","OBJECT_ID":"1993-036APE","EPOCH":"2026-04-09T16:50:22.102944","MEAN_MOTION":14.67581691,"ECCENTRICITY":0.00062009,"INCLINATION":74.0153,"RA_OF_ASC_NODE":256.9195,"ARG_OF_PERICENTER":298.7025,"MEAN_ANOMALY":61.3521,"EPHEMERIS_TYPE":0,"CLASSIFICATION_TYPE":"U","NORAD_CAT_ID":35663,"ELEMENT_SET_NO":999,"REV_AT_EPOCH":75111,"BSTAR":0.0012247438,"MEAN_MOTION_DOT":6.932e-5,"MEAN_MOTION_DDOT":0},{"OBJECT_NAME":"COSMOS 2251 DEB","OBJECT_ID":"1993-036APJ","EPOCH":"2026-04-27T01:57:57.788640","MEAN_MOTION":14.61385631,"ECCENTRICITY":0.00196925,"INCLINATION":74.0528,"RA_OF_ASC_NODE":241.8287,"ARG_OF_PERICENTER":266.7948,"MEAN_ANOMALY":93.0966,"EPHEMERIS_TYPE":0,"CLASSIFICATION_TYPE":"U","NORAD_CAT_ID":35667,"ELEMENT_SET_NO":999,"REV_AT_EPOCH":72779,"BSTAR":0.00091339057,"MEAN_MOTION_DOT":4.503e-5,"MEAN_MOTION_DDOT":0},{"OBJECT_NAME":"COSMOS 2251 DEB","OBJECT_ID":"1993-036APK","EPOCH":"2026-04-27T06:54:19.766592","MEAN_MOTION":14.6442958,"ECCENTRICITY":0.00815342,"INCLINATION":74.0443,"RA_OF_ASC_NODE":320.2391,"ARG_OF_PERICENTER":30.8635,"MEAN_ANOMALY":329.7288,"EPHEMERIS_TYPE":0,"CLASSIFICATION_TYPE":"U","NORAD_CAT_ID":35668,"ELEMENT_SET_NO":999,"REV_AT_EPOCH":89631,"BSTAR":0.00021595063,"MEAN_MOTION_DOT":1.166e-5,"MEAN_MOTION_DDOT":0},{"OBJECT_NAME":"COSMOS 2251 DEB","OBJECT_ID":"1993-036APL","EPOCH":"2026-04-25T05:00:58.781088","MEAN_MOTION":13.57484453,"ECCENTRICITY":0.0390929,"INCLINATION":73.8523,"RA_OF_ASC_NODE":301.5861,"ARG_OF_PERICENTER":30.3993,"MEAN_ANOMALY":331.9165,"EPHEMERIS_TYPE":0,"CLASSIFICATION_TYPE":"U","NORAD_CAT_ID":35669,"ELEMENT_SET_NO":999,"REV_AT_EPOCH":62600,"BSTAR":0.00049094,"MEAN_MOTION_DOT":5.57e-6,"MEAN_MOTION_DDOT":0},{"OBJECT_NAME":"COSMOS 2251 DEB","OBJECT_ID":"1993-036APM","EPOCH":"2026-04-25T09:21:29.825856","MEAN_MOTION":14.98686098,"ECCENTRICITY":0.00295489,"INCLINATION":73.8916,"RA_OF_ASC_NODE":152.0106,"ARG_OF_PERICENTER":83.2541,"MEAN_ANOMALY":277.2005,"EPHEMERIS_TYPE":0,"CLASSIFICATION_TYPE":"U","NORAD_CAT_ID":35670,"ELEMENT_SET_NO":999,"REV_AT_EPOCH":89726,"BSTAR":0.0010864382,"MEAN_MOTION_DOT":0.00013163,"MEAN_MOTION_DDOT":0},{"OBJECT_NAME":"COSMOS 2251 DEB","OBJECT_ID":"1993-036APN","EPOCH":"2026-04-26T15:34:29.627328","MEAN_MOTION":14.48559634,"ECCENTRICITY":0.00410689,"INCLINATION":74.0176,"RA_OF_ASC_NODE":186.3144,"ARG_OF_PERICENTER":325.237,"MEAN_ANOMALY":187.5033,"EPHEMERIS_TYPE":0,"CLASSIFICATION_TYPE":"U","NORAD_CAT_ID":35671,"ELEMENT_SET_NO":999,"REV_AT_EPOCH":88716,"BSTAR":0.00013475997,"MEAN_MOTION_DOT":4.83e-6,"MEAN_MOTION_DDOT":0},{"OBJECT_NAME":"COSMOS 2251 DEB","OBJECT_ID":"1993-036APR","EPOCH":"2026-04-27T06:07:38.805600","MEAN_MOTION":14.5601171,"ECCENTRICITY":0.00911156,"INCLINATION":74.0584,"RA_OF_ASC_NODE":60.2032,"ARG_OF_PERICENTER":72.9199,"MEAN_ANOMALY":288.192,"EPHEMERIS_TYPE":0,"CLASSIFICATION_TYPE":"U","NORAD_CAT_ID":35674,"ELEMENT_SET_NO":999,"REV_AT_EPOCH":88082,"BSTAR":0.0015530347,"MEAN_MOTION_DOT":7.208e-5,"MEAN_MOTION_DDOT":0},{"OBJECT_NAME":"COSMOS 2251 DEB","OBJECT_ID":"1993-036APW","EPOCH":"2026-04-10T08:11:11.360544","MEAN_MOTION":13.81331839,"ECCENTRICITY":0.02904206,"INCLINATION":73.9966,"RA_OF_ASC_NODE":102.8269,"ARG_OF_PERICENTER":285.9434,"MEAN_ANOMALY":70.987,"EPHEMERIS_TYPE":0,"CLASSIFICATION_TYPE":"U","NORAD_CAT_ID":35701,"ELEMENT_SET_NO":999,"REV_AT_EPOCH":63796,"BSTAR":0.0012412383,"MEAN_MOTION_DOT":1.791e-5,"MEAN_MOTION_DDOT":0},{"OBJECT_NAME":"COSMOS 2251 DEB","OBJECT_ID":"1993-036APY","EPOCH":"2026-04-26T18:36:25.305696","MEAN_MOTION":14.92704999,"ECCENTRICITY":0.00629779,"INCLINATION":74.0386,"RA_OF_ASC_NODE":131.9495,"ARG_OF_PERICENTER":168.6858,"MEAN_ANOMALY":191.576,"EPHEMERIS_TYPE":0,"CLASSIFICATION_TYPE":"U","NORAD_CAT_ID":35703,"ELEMENT_SET_NO":999,"REV_AT_EPOCH":68629,"BSTAR":0.00062147077,"MEAN_MOTION_DOT":6.631e-5,"MEAN_MOTION_DDOT":0},{"OBJECT_NAME":"COSMOS 2251 DEB","OBJECT_ID":"1993-036AQA","EPOCH":"2026-04-25T14:36:51.650496","MEAN_MOTION":14.78068301,"ECCENTRICITY":0.00269299,"INCLINATION":74.2734,"RA_OF_ASC_NODE":237.9045,"ARG_OF_PERICENTER":137.77,"MEAN_ANOMALY":222.5557,"EPHEMERIS_TYPE":0,"CLASSIFICATION_TYPE":"U","NORAD_CAT_ID":35705,"ELEMENT_SET_NO":999,"REV_AT_EPOCH":87900,"BSTAR":0.0030122955,"MEAN_MOTION_DOT":0.00021944,"MEAN_MOTION_DDOT":0},{"OBJECT_NAME":"COSMOS 2251 DEB","OBJECT_ID":"1993-036AQB","EPOCH":"2026-04-24T22:54:07.570656","MEAN_MOTION":13.66344609,"ECCENTRICITY":0.03432292,"INCLINATION":73.8882,"RA_OF_ASC_NODE":202.6289,"ARG_OF_PERICENTER":228.3659,"MEAN_ANOMALY":128.7594,"EPHEMERIS_TYPE":0,"CLASSIFICATION_TYPE":"U","NORAD_CAT_ID":35706,"ELEMENT_SET_NO":999,"REV_AT_EPOCH":63881,"BSTAR":0.0011251216,"MEAN_MOTION_DOT":1.371e-5,"MEAN_MOTION_DDOT":0},{"OBJECT_NAME":"COSMOS 2251 DEB","OBJECT_ID":"1993-036AQG","EPOCH":"2026-04-26T20:02:47.544000","MEAN_MOTION":14.64224531,"ECCENTRICITY":0.00836024,"INCLINATION":74.045,"RA_OF_ASC_NODE":321.1383,"ARG_OF_PERICENTER":27.6728,"MEAN_ANOMALY":332.8851,"EPHEMERIS_TYPE":0,"CLASSIFICATION_TYPE":"U","NORAD_CAT_ID":35711,"ELEMENT_SET_NO":999,"REV_AT_EPOCH":89748,"BSTAR":0.00019032654,"MEAN_MOTION_DOT":1.022e-5,"MEAN_MOTION_DDOT":0},{"OBJECT_NAME":"COSMOS 2251 DEB","OBJECT_ID":"1993-036AQM","EPOCH":"2026-04-26T06:00:07.535808","MEAN_MOTION":14.60267042,"ECCENTRICITY":0.00881998,"INCLINATION":73.9921,"RA_OF_ASC_NODE":296.7616,"ARG_OF_PERICENTER":106.0292,"MEAN_ANOMALY":69.8987,"EPHEMERIS_TYPE":0,"CLASSIFICATION_TYPE":"U","NORAD_CAT_ID":35716,"ELEMENT_SET_NO":999,"REV_AT_EPOCH":89590,"BSTAR":0.00013533058,"MEAN_MOTION_DOT":6.58e-6,"MEAN_MOTION_DDOT":0}]
