COSMOS 2251 DEB         
1 35650U 93036ANR 26117.32455041  .00017749  00000+0  19223-2 0  9997
2 35650  74.0417 109.3837 0013218 150.2728 274.4322 14.88147962896484
COSMOS 2251 DEB         
1 35660U 93036APB 26116.61091653  .00001265  00000+0  33030-3 0  9993
2 35660  74.0399 239.9524 0017763 352.5648  25.5129 14.50396596678266
COSMOS 2251 DEB         
1 35661U 93036APC 26117.11390925  .00005228  00000+0  52728-3 0  9992
2 35661  74.0119 169.4250 0086941 238.9405 120.3222 14.88561245898811
COSMOS 2251 DEB         
1 35663U 93036APE 26099.70164471  .00006932  00000+0  12247-2 0  9997
2 35663  74.0153 256.9195 0006200 298.7025  61.3521 14.67581691751114
COSMOS 2251 DEB         
1 35667U 93036APJ 26117.08191885  .00004503  00000+0  91339-3 0  9994
2 35667  74.0528 241.8287 0019692 266.7948  93.0966 14.61385631727799
COSMOS 2251 DEB         
1 35668U 93036APK 26117.28772878  .00001166  00000+0  21595-3 0  9993
2 35668  74.0443 320.2391 0081534  30.8635 329.7288 14.64429580896317
COSMOS 2251 DEB         
1 35669U 93036APL 26115.20901367  .00000557  00000+0  49094-3 0  9998
2 35669  73.8523 301.5861 0390929  30.3993 331.9165 13.57484453626008
COSMOS 2251 DEB         
1 35670U 93036APM 26115.38992854  .00013163  00000+0  10864-2 0  9999
2 35670  73.8916 152.0106 0029548  83.2541 277.2005 14.98686098897267
COSMOS 2251 DEB         
1 35671U 93036APN 26116.64895402  .00000483  00000+0  13476-3 0  9995
2 35671  74.0176 186.3144 0041068 325.2370 187.5033 14.48559634887163
COSMOS 2251 DEB         
1 35674U 93036APR 26117.25531025  .00007208  00000+0  15530-2 0  9998
2 35674  74.0584  60.2032 0091115  72.9199 288.1920 14.56011710880824
COSMOS 2251 DEB         
1 35701U 93036APW 26100.34110371  .00001791  00000+0  12412-2 0  9995
2 35701  73.9966 102.8269 0290420 285.9434  70.9870 13.81331839637960
COSMOS 2251 DEB         
1 35703U 93036APY 26116.77529289  .00006631  00000+0  62147-3 0  9992
2 35703  74.0386 131.9495 0062977 168.6858 191.5760 14.92704999686297
COSMOS 2251 DEB         
1 35705U 93036AQA 26115.60893114  .00021944  00000+0  30123-2 0  9998
2 35705  74.2734 237.9045 0026929 137.7700 222.5557 14.78068301879002
COSMOS 2251 DEB         
1 35706U 93036AQB 26114.95425429  .00001371  00000+0  11251-2 0  9999
2 35706  73.8882 202.6289 0343229 228.3659 128.7594 13.66344609638810
COSMOS 2251 DEB         
1 35711U 93036AQG 26116.83527250  .00001022  00000+0  19033-3 0  9999
2 35711  74.0450 321.1383 0083602  27.6728 332.8851 14.64224531897489
COSMOS 2251 DEB         
1 35716U 93036AQM 26116.25008722  .00000658  00000+0  13533-3 0  9991
2 35716  73.9921 296.7616 0088199 106.0292  69.8987 14.60267042895907
